SKYSAT-C2               
1 41773U 16058D   23327.12821335  .00015279  00000+0  52179-3 0  9994
2 41773  97.0471  19.5056 0004400 135.0156 225.1443 15.30381622401453
SKYSAT-C3               
1 41774U 16058E   23327.16309790  .00024594  00000+0  58666-3 0  9992
2 41774  97.0466  23.8993 0006140 135.1957 224.9788 15.41524142401759
PISAT                   
1 41784U 16059B   23327.54931420  .00001577  00000+0  30004-3 0  9999
2 41784  97.8547 353.9055 0029894 311.4882  48.3756 14.65161102382390
ALSAT 1B                
1 41785U 16059C   23327.58351772  .00000677  00000+0  11894-3 0  9996
2 41785  97.8433 359.0101 0009517   1.0410 359.0815 14.70639373382836
ALSAT 2B                
1 41786U 16059D   23327.55242026  .00001270  00000+0  23002-3 0  9999
2 41786  98.1179  26.5655 0000726  53.3474 306.7797 14.68002279383207
PATHFINDER 1            
1 41787U 16059E   23327.56484320  .00001118  00000+0  21638-3 0  9990
2 41787  97.8517 354.2155 0028665 308.4368  51.4264 14.64937994382449
SCATSAT 1               
1 41790U 16059H   23327.59569244  .00000469  00000+0  12854-3 0  9994
2 41790  98.2511   8.7919 0005360  39.4142 320.7443 14.51364088379080
GSAT-18                 
1 41793U 16060A   23327.45885082 -.00000071  00000+0  00000+0 0  9991
2 41793   0.0504 104.8041 0002513 128.6605  67.8915  1.00270397 26140
SKY MUSTER 2 (NBN1B)    
1 41794U 16060B   23327.37097997 -.00000239  00000+0  00000+0 0  9999
2 41794   0.0173 298.3953 0001674 298.7151 103.3388  1.00269489 26124
HIMAWARI-9              
1 41836U 16064A   23327.58174412 -.00000269  00000+0  00000+0 0  9994
2 41836   0.0136 333.3715 0001208 308.4878 130.6368  1.00270487 25809
SHIJIAN-17 (SJ-17)      
1 41838U 16065A   23327.56668189 -.00000101  00000+0  00000+0 0  9999
2 41838   3.3565  83.8001 0004452 164.2405 178.5194  1.00271128 25818
XPNAV-1                 
1 41841U 16066A   23327.60332118  .00016169  00000+0  47316-3 0  9994
2 41841  97.3949 338.1893 0009395 236.6918 123.3426 15.35287123391345
XIAOXIANG 1             
1 41842U 16066B   23327.54280552  .00037528  00000+0  75047-3 0  9996
2 41842  97.3753 343.9343 0007301 203.7504 156.3410 15.46668201391851
CAS-2T & KS-1Q          
1 41847U 16066G   23327.15149779  .00001825  00000+0  27529-3 0  9996
2 41847  98.4876  34.8678 0358452  80.2391 283.9077 14.40366038369687
RAVAN                   
1 41849U 16067B   23327.42385427  .00013593  00000+0  86537-3 0  9990
2 41849  98.0499 129.0234 0015071  14.1053 346.0592 15.08813127384758
CELTEE 1                
1 41850U 16067C   23327.38732487  .00008571  00000+0  63347-3 0  9993
2 41850  98.0809 122.0481 0001087 129.8151 230.3169 15.03475237384326
OPTICUBE 04             
1 41851U 16067D   23327.40085029  .00003677  00000+0  29350-3 0  9998
2 41851  98.0519 119.3708 0014795  37.3339 322.8909 15.00871918384206
