[{"OBJECT_NAME":"SKYSAT-C2","OBJECT_ID":"2016-058D","EPOCH":"2023-11-23T03:04:37.633440","MEAN_MOTION":15.30381622,"ECCENTRICITY":0.00044,"INCLINATION":97.0471,"RA_OF_ASC_NODE":19.5056,"ARG_OF_PERICENTER":135.0156,"MEAN_ANOMALY":225.1443,"EPHEMERIS_TYPE":0,"CLASSIFICATION_TYPE":"U","NORAD_CAT_ID":41773,"ELEMENT_SET_NO":999,"REV_AT_EPOCH":40145,"BSTAR":0.00052179,"MEAN_MOTION_DOT":0.00015279,"MEAN_MOTION_DDOT":0},{"OBJECT_NAME":"SKYSAT-C3","OBJECT_ID":"2016-058E","EPOCH":"2023-11-23T03:54:51.658560","MEAN_MOTION":15.41524142,"ECCENTRICITY":0.000614,"INCLINATION":97.0466,"RA_OF_ASC_NODE":23.8993,"ARG_OF_PERICENTER":135.1957,"MEAN_ANOMALY":224.9788,"EPHEMERIS_TYPE":0,"CLASSIFICATION_TYPE":"U","NORAD_CAT_ID":41774,"ELEMENT_SET_NO":999,"REV_AT_EPOCH":40175,"BSTAR":0.00058666,"MEAN_MOTION_DOT":0.00024594,"MEAN_MOTION_DDOT":0},{"OBJECT_NAME":"PISAT","OBJECT_ID":"2016-059B","EPOCH":"2023-11-23T13:11:00.746880","MEAN_MOTION":14.65161102,"ECCENTRICITY":0.0029894,"INCLINATION":97.8547,"RA_OF_ASC_NODE":353.9055,"ARG_OF_PERICENTER":311.4882,"MEAN_ANOMALY":48.3756,"EPHEMERIS_TYPE":0,"CLASSIFICATION_TYPE":"U","NORAD_CAT_ID":41784,"ELEMENT_SET_NO":999,"REV_AT_EPOCH":38239,"BSTAR":0.00030004,"MEAN_MOTION_DOT":1.577e-5,"MEAN_MOTION_DDOT":0},{"OBJECT_NAME":"ALSAT 1B","OBJECT_ID":"2016-059C","EPOCH":"2023-11-23T14:00:15.931008","MEAN_MOTION":14.70639373,"ECCENTRICITY":0.0009517,"INCLINATION":97.8433,"RA_OF_ASC_NODE":359.0101,"ARG_OF_PERICENTER":1.041,"MEAN_ANOMALY":359.0815,"EPHEMERIS_TYPE":0,"CLASSIFICATION_TYPE":"U","NORAD_CAT_ID":41785,"ELEMENT_SET_NO":999,"REV_AT_EPOCH":38283,"BSTAR":0.00011894,"MEAN_MOTION_DOT":6.77e-6,"MEAN_MOTION_DDOT":0},{"OBJECT_NAME":"ALSAT 2B","OBJECT_ID":"2016-059D","EPOCH":"2023-11-23T13:15:29.110464","MEAN_MOTION":14.68002279,"ECCENTRICITY":7.26e-5,"INCLINATION":98.1179,"RA_OF_ASC_NODE":26.5655,"ARG_OF_PERICENTER":53.3474,"MEAN_ANOMALY":306.7797,"EPHEMERIS_TYPE":0,"CLASSIFICATION_TYPE":"U","NORAD_CAT_ID":41786,"ELEMENT_SET_NO":999,"REV_AT_EPOCH":38320,"BSTAR":0.00023002,"MEAN_MOTION_DOT":1.27e-5,"MEAN_MOTION_DDOT":0},{"OBJECT_NAME":"PATHFINDER 1","OBJECT_ID":"2016-059E","EPOCH":"2023-11-23T13:33:22.452480","MEAN_MOTION":14.64937994,"ECCENTRICITY":0.0028665,"INCLINATION":97.8517,"RA_OF_ASC_NODE":354.2155,"ARG_OF_PERICENTER":308.4368,"MEAN_ANOMALY":51.4264,"EPHEMERIS_TYPE":0,"CLASSIFICATION_TYPE":"U","NORAD_CAT_ID":41787,"ELEMENT_SET_NO":999,"REV_AT_EPOCH":38244,"BSTAR":0.00021638,"MEAN_MOTION_DOT":1.118e-5,"MEAN_MOTION_DDOT":0},{"OBJECT_NAME":"SCATSAT 1","OBJECT_ID":"2016-059H","EPOCH":"2023-11-23T14:17:47.826816","MEAN_MOTION":14.51364088,"ECCENTRICITY":0.000536,"INCLINATION":98.2511,"RA_OF_ASC_NODE":8.7919,"ARG_OF_PERICENTER":39.4142,"MEAN_ANOMALY":320.7443,"EPHEMERIS_TYPE":0,"CLASSIFICATION_TYPE":"U","NORAD_CAT_ID":41790,"ELEMENT_SET_NO":999,"REV_AT_EPOCH":37908,"BSTAR":0.00012854,"MEAN_MOTION_DOT":4.69e-6,"MEAN_MOTION_DDOT":0},{"OBJECT_NAME":"GSAT-18","OBJECT_ID":"2016-060A","EPOCH":"2023-11-23T11:00:44.710848","MEAN_MOTION":1.00270397,"ECCENTRICITY":0.0002513,"INCLINATION":0.0504,"RA_OF_ASC_NODE":104.8041,"ARG_OF_PERICENTER":128.6605,"MEAN_ANOMALY":67.8915,"EPHEMERIS_TYPE":0,"CLASSIFICATION_TYPE":"U","NORAD_CAT_ID":41793,"ELEMENT_SET_NO":999,"REV_AT_EPOCH":2614,"BSTAR":0,"MEAN_MOTION_DOT":-7.1e-7,"MEAN_MOTION_DDOT":0},{"OBJECT_NAME":"SKY MUSTER 2 (NBN1B)","OBJECT_ID":"2016-060B","EPOCH":"2023-11-23T08:54:12.669408","MEAN_MOTION":1.00269489,"ECCENTRICITY":0.0001674,"INCLINATION":0.0173,"RA_OF_ASC_NODE":298.3953,"ARG_OF_PERICENTER":298.7151,"MEAN_ANOMALY":103.3388,"EPHEMERIS_TYPE":0,"CLASSIFICATION_TYPE":"U","NORAD_CAT_ID":41794,"ELEMENT_SET_NO":999,"REV_AT_EPOCH":2612,"BSTAR":0,"MEAN_MOTION_DOT":-2.39e-6,"MEAN_MOTION_DDOT":0},{"OBJECT_NAME":"HIMAWARI-9","OBJECT_ID":"2016-064A","EPOCH":"2023-11-23T13:57:42.691968","MEAN_MOTION":1.00270487,"ECCENTRICITY":0.0001208,"INCLINATION":0.0136,"RA_OF_ASC_NODE":333.3715,"ARG_OF_PERICENTER":308.4878,"MEAN_ANOMALY":130.6368,"EPHEMERIS_TYPE":0,"CLASSIFICATION_TYPE":"U","NORAD_CAT_ID":41836,"ELEMENT_SET_NO":999,"REV_AT_EPOCH":2580,"BSTAR":0,"MEAN_MOTION_DOT":-2.69e-6,"MEAN_MOTION_DDOT":0},{"OBJECT_NAME":"SHIJIAN-17 (SJ-17)","OBJECT_ID":"2016-065A","EPOCH":"2023-11-23T13:36:01.315296","MEAN_MOTION":1.00271128,"ECCENTRICITY":0.0004452,"INCLINATION":3.3565,"RA_OF_ASC_NODE":83.8001,"ARG_OF_PERICENTER":164.2405,"MEAN_ANOMALY":178.5194,"EPHEMERIS_TYPE":0,"CLASSIFICATION_TYPE":"U","NORAD_CAT_ID":41838,"ELEMENT_SET_NO":999,"REV_AT_EPOCH":2581,"BSTAR":0,"MEAN_MOTION_DOT":-1.01e-6,"MEAN_MOTION_DDOT":0},{"OBJECT_NAME":"XPNAV-1","OBJECT_ID":"2016-066A","EPOCH":"2023-11-23T14:28:46.949952","MEAN_MOTION":15.35287123,"ECCENTRICITY":0.0009395,"INCLINATION":97.3949,"RA_OF_ASC_NODE":338.1893,"ARG_OF_PERICENTER":236.6918,"MEAN_ANOMALY":123.3426,"EPHEMERIS_TYPE":0,"CLASSIFICATION_TYPE":"U","NORAD_CAT_ID":41841,"ELEMENT_SET_NO":999,"REV_AT_EPOCH":39134,"BSTAR":0.00047316,"MEAN_MOTION_DOT":0.00016169,"MEAN_MOTION_DDOT":0},{"OBJECT_NAME":"XIAOXIANG 1","OBJECT_ID":"2016-066B","EPOCH":"2023-11-23T13:01:38.396928","MEAN_MOTION":15.46668201,"ECCENTRICITY":0.0007301,"INCLINATION":97.3753,"RA_OF_ASC_NODE":343.9343,"ARG_OF_PERICENTER":203.7504,"MEAN_ANOMALY":156.341,"EPHEMERIS_TYPE":0,"CLASSIFICATION_TYPE":"U","NORAD_CAT_ID":41842,"ELEMENT_SET_NO":999,"REV_AT_EPOCH":39185,"BSTAR":0.00075047,"MEAN_MOTION_DOT":0.00037528,"MEAN_MOTION_DDOT":0},{"OBJECT_NAME":"CAS-2T & KS-1Q","OBJECT_ID":"2016-066G","EPOCH":"2023-11-23T03:38:09.409056","MEAN_MOTION":14.40366038,"ECCENTRICITY":0.0358452,"INCLINATION":98.4876,"RA_OF_ASC_NODE":34.8678,"ARG_OF_PERICENTER":80.2391,"MEAN_ANOMALY":283.9077,"EPHEMERIS_TYPE":0,"CLASSIFICATION_TYPE":"U","NORAD_CAT_ID":41847,"ELEMENT_SET_NO":999,"REV_AT_EPOCH":36968,"BSTAR":0.00027529,"MEAN_MOTION_DOT":1.825e-5,"MEAN_MOTION_DDOT":0},{"OBJECT_NAME":"RAVAN","OBJECT_ID":"2016-067B","EPOCH":"2023-11-23T10:10:21.008928","MEAN_MOTION":15.08813127,"ECCENTRICITY":0.0015071,"INCLINATION":98.0499,"RA_OF_ASC_NODE":129.0234,"ARG_OF_PERICENTER":14.1053,"MEAN_ANOMALY":346.0592,"EPHEMERIS_TYPE":0,"CLASSIFICATION_TYPE":"U","NORAD_CAT_ID":41849,"ELEMENT_SET_NO":999,"REV_AT_EPOCH":38475,"BSTAR":0.00086537,"MEAN_MOTION_DOT":0.00013593,"MEAN_MOTION_DDOT":0},{"OBJECT_NAME":"CELTEE 1","OBJECT_ID":"2016-067C","EPOCH":"2023-11-23T09:17:44.868768","MEAN_MOTION":15.03475237,"ECCENTRICITY":0.0001087,"INCLINATION":98.0809,"RA_OF_ASC_NODE":122.0481,"ARG_OF_PERICENTER":129.8151,"MEAN_ANOMALY":230.3169,"EPHEMERIS_TYPE":0,"CLASSIFICATION_TYPE":"U","NORAD_CAT_ID":41850,"ELEMENT_SET_NO":999,"REV_AT_EPOCH":38432,"BSTAR":0.00063347,"MEAN_MOTION_DOT":8.571e-5,"MEAN_MOTION_DDOT":0},{"OBJECT_NAME":"OPTICUBE 04","OBJECT_ID":"2016-067D","EPOCH":"2023-11-23T09:37:13.465056","MEAN_MOTION":15.00871918,"ECCENTRICITY":0.0014795,"INCLINATION":98.0519,"RA_OF_ASC_NODE":119.3708,"ARG_OF_PERICENTER":37.3339,"MEAN_ANOMALY":322.8909,"EPHEMERIS_TYPE":0,"CLASSIFICATION_TYPE":"U","NORAD_CAT_ID":41851,"ELEMENT_SET_NO":999,"REV_AT_EPOCH":38420,"BSTAR":0.0002935,"MEAN_MOTION_DOT":3.677e-5,"MEAN_MOTION_DDOT":0}]
